{"type": "FeatureCollection", "features": [ {"type": "Feature", "properties": {"norad_id": 39634, "name": "SENTINEL-1A", "group": "resource", "lat": -22.825825167185172, "lon": 8.462864302512287, "alt_km": 701.4502026527516, "timestamp": "2025-12-25T22:42:16.653425+00:00", "meta": {"OBJECT_NAME": "SENTINEL-1A", "OBJECT_ID": "2014-016A", "EPOCH": "2025-12-25T17:52:22.771200", "MEAN_MOTION": 14.59198973, "ECCENTRICITY": 0.0001257, "INCLINATION": 98.1803, "RA_OF_ASC_NODE": 4.7935, "ARG_OF_PERICENTER": 85.2571, "MEAN_ANOMALY": 274.8772, "EPHEMERIS_TYPE": 0, "CLASSIFICATION_TYPE": "U", "NORAD_CAT_ID": 39634, "ELEMENT_SET_NO": 999, "REV_AT_EPOCH": 62472, "BSTAR": -2.061e-05, "MEAN_MOTION_DOT": -1.43e-06, "MEAN_MOTION_DDOT": 0}, "tle": {"line1": "1 39634U 14016A   25359.74470800 -.00000143  00000+0 -20610-4 0  9993", "line2": "2 39634  98.1803   4.7935 0001257  85.2571 274.8772 14.59198973624721"}}, "geometry": {"type": "Point", "coordinates": [8.462864302512287, -22.825825167185172]}}, {"type": "Feature", "properties": {"norad_id": 39731, "name": "KAZEOSAT 1", "group": "resource", "lat": -37.89059309385842, "lon": -115.00009082313709, "alt_km": 758.5345560068436, "timestamp": "2025-12-25T22:42:16.653435+00:00", "meta": {"OBJECT_NAME": "KAZEOSAT 1", "OBJECT_ID": "2014-024A", "EPOCH": "2025-12-25T18:21:54.588096", "MEAN_MOTION": 14.42069871, "ECCENTRICITY": 0.0001223, "INCLINATION": 98.3415, "RA_OF_ASC_NODE": 71.3795, "ARG_OF_PERICENTER": 95.59, "MEAN_ANOMALY": 264.5429, "EPHEMERIS_TYPE": 0, "CLASSIFICATION_TYPE": "U", "NORAD_CAT_ID": 39731, "ELEMENT_SET_NO": 999, "REV_AT_EPOCH": 61356, "BSTAR": 9.1912e-05, "MEAN_MOTION_DOT": 2.59e-06, "MEAN_MOTION_DDOT": 0}, "tle": {"line1": "1 39731U 14024A   25359.76521514  .00000259  00000+0  91912-4 0  9990", "line2": "2 39731  98.3415  71.3795 0001223  95.5900 264.5429 14.42069871613568"}}, "geometry": {"type": "Point", "coordinates": [-115.00009082313709, -37.89059309385842]}}, {"type": "Feature", "properties": {"norad_id": 39766, "name": "ALOS-2", "group": "resource", "lat": 75.36251383462125, "lon": 62.38600585048726, "alt_km": 622.914786189679, "timestamp": "2025-12-25T22:42:16.653445+00:00", "meta": {"OBJECT_NAME": "ALOS-2", "OBJECT_ID": "2014-029A", "EPOCH": "2025-12-25T19:06:30.960288", "MEAN_MOTION": 14.79470504, "ECCENTRICITY": 0.00014, "INCLINATION": 97.9219, "RA_OF_ASC_NODE": 94.4561, "ARG_OF_PERICENTER": 97.7839, "MEAN_ANOMALY": 262.3532, "EPHEMERIS_TYPE": 0, "CLASSIFICATION_TYPE": "U", "NORAD_CAT_ID": 39766, "ELEMENT_SET_NO": 999, "REV_AT_EPOCH": 62594, "BSTAR": 0.00021442, "MEAN_MOTION_DOT": 1.55e-05, "MEAN_MOTION_DDOT": 0}, "tle": {"line1": "1 39766U 14029A   25359.79619167  .00001550  00000+0  21442-3 0  9993", "line2": "2 39766  97.9219  94.4561 0001400  97.7839 262.3532 14.79470504625947"}}, "geometry": {"type": "Point", "coordinates": [62.38600585048726, 75.36251383462125]}}, {"type": "Feature", "properties": {"norad_id": 40010, "name": "KAZEOSAT 2", "group": "resource", "lat": -76.3407730413346, "lon": -9.495811796923011, "alt_km": 621.1029752312252, "timestamp": "2025-12-25T22:42:16.653456+00:00", "meta": {"OBJECT_NAME": "KAZEOSAT 2", "OBJECT_ID": "2014-033A", "EPOCH": "2025-12-25T18:18:37.856160", "MEAN_MOTION": 14.85188248, "ECCENTRICITY": 0.0008759, "INCLINATION": 97.5496, "RA_OF_ASC_NODE": 203.4051, "ARG_OF_PERICENTER": 161.9312, "MEAN_ANOMALY": 198.2216, "EPHEMERIS_TYPE": 0, "CLASSIFICATION_TYPE": "U", "NORAD_CAT_ID": 40010, "ELEMENT_SET_NO": 999, "REV_AT_EPOCH": 62321, "BSTAR": 6.0671e-05, "MEAN_MOTION_DOT": 4.7e-06, "MEAN_MOTION_DDOT": 0}, "tle": {"line1": "1 40010U 14033A   25359.76293815  .00000470  00000+0  60671-4 0  9995", "line2": "2 40010  97.5496 203.4051 0008759 161.9312 198.2216 14.85188248623216"}}, "geometry": {"type": "Point", "coordinates": [-9.495811796923011, -76.3407730413346]}}, {"type": "Feature", "properties": {"norad_id": 40011, "name": "HODOYOSHI-4", "group": "resource", "lat": 80.10227818619833, "lon": 57.57281670032589, "alt_km": 589.9083325452784, "timestamp": "2025-12-25T22:42:16.653466+00:00", "meta": {"OBJECT_NAME": "HODOYOSHI-4", "OBJECT_ID": "2014-033B", "EPOCH": "2025-12-25T17:25:44.295168", "MEAN_MOTION": 14.87526556, "ECCENTRICITY": 0.0024164, "INCLINATION": 97.541, "RA_OF_ASC_NODE": 187.9703, "ARG_OF_PERICENTER": 157.5224, "MEAN_ANOMALY": 202.7058, "EPHEMERIS_TYPE": 0, "CLASSIFICATION_TYPE": "U", "NORAD_CAT_ID": 40011, "ELEMENT_SET_NO": 999, "REV_AT_EPOCH": 62301, "BSTAR": 0.00022078, "MEAN_MOTION_DOT": 1.961e-05, "MEAN_MOTION_DDOT": 0}, "tle": {"line1": "1 40011U 14033B   25359.72620712  .00001961  00000+0  22078-3 0  9996", "line2": "2 40011  97.5410 187.9703 0024164 157.5224 202.7058 14.87526556623017"}}, "geometry": {"type": "Point", "coordinates": [57.57281670032589, 80.10227818619833]}}, {"type": "Feature", "properties": {"norad_id": 40013, "name": "DEIMOS-2", "group": "resource", "lat": 24.789523905772846, "lon": 58.848652827631476, "alt_km": 587.1736627750006, "timestamp": "2025-12-25T22:42:16.653476+00:00", "meta": {"OBJECT_NAME": "DEIMOS-2", "OBJECT_ID": "2014-033D", "EPOCH": "2025-12-25T18:47:47.003424", "MEAN_MOTION": 14.93026744, "ECCENTRICITY": 0.0001368, "INCLINATION": 97.605, "RA_OF_ASC_NODE": 235.1535, "ARG_OF_PERICENTER": 111.3417, "MEAN_ANOMALY": 248.7949, "EPHEMERIS_TYPE": 0, "CLASSIFICATION_TYPE": "U", "NORAD_CAT_ID": 40013, "ELEMENT_SET_NO": 999, "REV_AT_EPOCH": 61184, "BSTAR": 0.0002036, "MEAN_MOTION_DOT": 2.063e-05, "MEAN_MOTION_DDOT": 0}, "tle": {"line1": "1 40013U 14033D   25359.78318291  .00002063  00000+0  20360-3 0  9996", "line2": "2 40013  97.6050 235.1535 0001368 111.3417 248.7949 14.93026744611840"}}, "geometry": {"type": "Point", "coordinates": [58.848652827631476, 24.789523905772846]}}, {"type": "Feature", "properties": {"norad_id": 40015, "name": "HODOYOSHI-3", "group": "resource", "lat": -73.56920771471306, "lon": -41.793941781851146, "alt_km": 607.3838466903653, "timestamp": "2025-12-25T22:42:16.653486+00:00", "meta": {"OBJECT_NAME": "HODOYOSHI-3", "OBJECT_ID": "2014-033F", "EPOCH": "2025-12-25T16:42:23.737248", "MEAN_MOTION": 14.84849878, "ECCENTRICITY": 0.0032569, "INCLINATION": 97.6208, "RA_OF_ASC_NODE": 164.9685, "ARG_OF_PERICENTER": 203.9483, "MEAN_ANOMALY": 156.0219, "EPHEMERIS_TYPE": 0, "CLASSIFICATION_TYPE": "U", "NORAD_CAT_ID": 40015, "ELEMENT_SET_NO": 999, "REV_AT_EPOCH": 62187, "BSTAR": 0.00019934, "MEAN_MOTION_DOT": 1.657e-05, "MEAN_MOTION_DDOT": 0}, "tle": {"line1": "1 40015U 14033F   25359.69610807  .00001657  00000+0  19934-3 0  9999", "line2": "2 40015  97.6208 164.9685 0032569 203.9483 156.0219 14.84849878621876"}}, "geometry": {"type": "Point", "coordinates": [-41.793941781851146, -73.56920771471306]}}, {"type": "Feature", "properties": {"norad_id": 40053, "name": "SPOT 7", "group": "resource", "lat": -80.60246592500154, "lon": 120.94748554920993, "alt_km": 699.1478880148879, "timestamp": "2025-12-25T22:42:16.653496+00:00", "meta": {"OBJECT_NAME": "SPOT 7", "OBJECT_ID": "2014-034A", "EPOCH": "2025-12-25T18:09:44.585856", "MEAN_MOTION": 14.60750499, "ECCENTRICITY": 0.0001534, "INCLINATION": 98.0884, "RA_OF_ASC_NODE": 61.5311, "ARG_OF_PERICENTER": 80.982, "MEAN_ANOMALY": 279.1554, "EPHEMERIS_TYPE": 0, "CLASSIFICATION_TYPE": "U", "NORAD_CAT_ID": 40053, "ELEMENT_SET_NO": 999, "REV_AT_EPOCH": 61181, "BSTAR": 0.00016417, "MEAN_MOTION_DOT": 7.55e-06, "MEAN_MOTION_DDOT": 0}, "tle": {"line1": "1 40053U 14034A   25359.75676604  .00000755  00000+0  16417-3 0  9997", "line2": "2 40053  98.0884  61.5311 0001534  80.9820 279.1554 14.60750499611813"}}, "geometry": {"type": "Point", "coordinates": [120.94748554920993, -80.60246592500154]}}, {"type": "Feature", "properties": {"norad_id": 40072, "name": "SKYSAT-B", "group": "resource", "lat": 32.79588139004096, "lon": -61.08836832525097, "alt_km": 603.3593989326037, "timestamp": "2025-12-25T22:42:16.653506+00:00", "meta": {"OBJECT_NAME": "SKYSAT-B", "OBJECT_ID": "2014-037D", "EPOCH": "2025-12-25T17:42:43.788384", "MEAN_MOTION": 14.87372993, "ECCENTRICITY": 0.0006857, "INCLINATION": 98.3629, "RA_OF_ASC_NODE": 304.1317, "ARG_OF_PERICENTER": 114.0577, "MEAN_ANOMALY": 246.1355, "EPHEMERIS_TYPE": 0, "CLASSIFICATION_TYPE": "U", "NORAD_CAT_ID": 40072, "ELEMENT_SET_NO": 999, "REV_AT_EPOCH": 62017, "BSTAR": 0.00021243, "MEAN_MOTION_DOT": 1.86e-05, "MEAN_MOTION_DDOT": 0}, "tle": {"line1": "1 40072U 14037D   25359.73800681  .00001860  00000+0  21243-3 0  9994", "line2": "2 40072  98.3629 304.1317 0006857 114.0577 246.1355 14.87372993620177"}}, "geometry": {"type": "Point", "coordinates": [-61.08836832525097, 32.79588139004096]}}, {"type": "Feature", "properties": {"norad_id": 40115, "name": "WORLDVIEW-3 (WV-3)", "group": "resource", "lat": 7.800263700711018, "lon": -106.84823466053615, "alt_km": 615.5195969973847, "timestamp": "2025-12-25T22:42:16.653516+00:00", "meta": {"OBJECT_NAME": "WORLDVIEW-3 (WV-3)", "OBJECT_ID": "2014-048A", "EPOCH": "2025-12-25T18:41:50.961120", "MEAN_MOTION": 14.8467711, "ECCENTRICITY": 0.0002064, "INCLINATION": 97.8764, "RA_OF_ASC_NODE": 71.9002, "ARG_OF_PERICENTER": 128.2867, "MEAN_ANOMALY": 231.8534, "EPHEMERIS_TYPE": 0, "CLASSIFICATION_TYPE": "U", "NORAD_CAT_ID": 40115, "ELEMENT_SET_NO": 999, "REV_AT_EPOCH": 61617, "BSTAR": 0.00014151, "MEAN_MOTION_DOT": 1.144e-05, "MEAN_MOTION_DDOT": 0}, "tle": {"line1": "1 40115U 14048A   25359.77906205  .00001144  00000+0  14151-3 0  9992", "line2": "2 40115  97.8764  71.9002 0002064 128.2867 231.8534 14.84677110616175"}}, "geometry": {"type": "Point", "coordinates": [-106.84823466053615, 7.800263700711018]}}]}